{
  "type": "FeatureCollection",
  "features": [
    {
      "type": "Feature",
      "properties": {
        "norad_id": 64694,
        "name": "GOSAT-GW (IBUKI GW)",
        "group": "resource",
        "lat": 8.492442059161592,
        "lon": 115.7882955837515,
        "alt_km": 670.69720780032,
        "timestamp": "2025-12-25T07:00:33.700641+00:00",
        "meta_object_name": "GOSAT-GW (IBUKI GW)",
        "meta_object_id": "2025-141A",
        "meta_epoch": "2025-12-24T22:02:58.760160",
        "meta_mean_motion": 14.67558979,
        "meta_eccentricity": 0.0001437,
        "meta_inclination": 98.0439,
        "meta_ra_of_asc_node": 294.2118,
        "meta_arg_of_pericenter": 82.4259,
        "meta_mean_anomaly": 277.7109,
        "meta_ephemeris_type": 0,
        "meta_classification_type": "U",
        "meta_norad_cat_id": 64694,
        "meta_element_set_no": 999,
        "meta_rev_at_epoch": 2628,
        "meta_bstar": 0.00019399347,
        "meta_mean_motion_dot": 1.053e-05,
        "meta_mean_motion_ddot": 0,
        "tle_line1": "1 64694U 25141A   25358.91873565  .00001053  00000+0  19399-3 0  9991",
        "tle_line2": "2 64694  98.0439 294.2118 0001437  82.4259 277.7109 14.67558979 26288"
      },
      "geometry": {
        "type": "Point",
        "coordinates": [
          115.7882955837515,
          8.492442059161592
        ]
      }
    },
    {
      "type": "Feature",
      "properties": {
        "norad_id": 64876,
        "name": "IONOSFERA-M 3",
        "group": "resource",
        "lat": -71.1075553255451,
        "lon": 114.62649623897286,
        "alt_km": 828.8476589899801,
        "timestamp": "2025-12-25T07:00:33.700652+00:00",
        "meta_object_name": "IONOSFERA-M 3",
        "meta_object_id": "2025-155A",
        "meta_epoch": "2025-12-24T23:03:53.330688",
        "meta_mean_motion": 14.2144392,
        "meta_eccentricity": 0.00018496,
        "meta_inclination": 98.58,
        "meta_ra_of_asc_node": 320.4822,
        "meta_arg_of_pericenter": 40.2291,
        "meta_mean_anomaly": 319.9024,
        "meta_ephemeris_type": 0,
        "meta_classification_type": "U",
        "meta_norad_cat_id": 64876,
        "meta_element_set_no": 999,
        "meta_rev_at_epoch": 2165,
        "meta_bstar": 5.5377291e-05,
        "meta_mean_motion_dot": 7.8e-07,
        "meta_mean_motion_ddot": 0,
        "tle_line1": "1 64876U 25155A   25358.96103392  .00000078  00000+0  55377-4 0  9990",
        "tle_line2": "2 64876  98.5800 320.4822 0001849  40.2291 319.9024 14.21443920 21656"
      },
      "geometry": {
        "type": "Point",
        "coordinates": [
          114.62649623897286,
          -71.1075553255451
        ]
      }
    },
    {
      "type": "Feature",
      "properties": {
        "norad_id": 64877,
        "name": "IONOSFERA-M 4",
        "group": "resource",
        "lat": 71.68937665798018,
        "lon": -66.42074459152818,
        "alt_km": 812.6852634135676,
        "timestamp": "2025-12-25T07:00:33.700662+00:00",
        "meta_object_name": "IONOSFERA-M 4",
        "meta_object_id": "2025-155B",
        "meta_epoch": "2025-12-24T23:54:22.235616",
        "meta_mean_motion": 14.21445093,
        "meta_eccentricity": 0.00012811,
        "meta_inclination": 98.5801,
        "meta_ra_of_asc_node": 320.4356,
        "meta_arg_of_pericenter": 51.7221,
        "meta_mean_anomaly": 308.4072,
        "meta_ephemeris_type": 0,
        "meta_classification_type": "U",
        "meta_norad_cat_id": 64877,
        "meta_element_set_no": 999,
        "meta_rev_at_epoch": 2165,
        "meta_bstar": 6.2062411e-05,
        "meta_mean_motion_dot": 9.3e-07,
        "meta_mean_motion_ddot": 0,
        "tle_line1": "1 64877U 25155B   25358.99609069  .00000093  00000+0  62062-4 0  9992",
        "tle_line2": "2 64877  98.5801 320.4356 0001281  51.7221 308.4072 14.21445093 21659"
      },
      "geometry": {
        "type": "Point",
        "coordinates": [
          -66.42074459152818,
          71.68937665798018
        ]
      }
    },
    {
      "type": "Feature",
      "properties": {
        "norad_id": 64899,
        "name": "MICROCARB",
        "group": "resource",
        "lat": -7.996981550041537,
        "lon": 75.56765592487058,
        "alt_km": 663.6558496297266,
        "timestamp": "2025-12-25T07:00:33.700672+00:00",
        "meta_object_name": "MICROCARB",
        "meta_object_id": "2025-156A",
        "meta_epoch": "2025-12-24T17:59:43.152864",
        "meta_mean_motion": 14.72075752,
        "meta_eccentricity": 0.00176333,
        "meta_inclination": 98.001,
        "meta_ra_of_asc_node": 73.902,
        "meta_arg_of_pericenter": 108.7626,
        "meta_mean_anomaly": 251.5496,
        "meta_ephemeris_type": 0,
        "meta_classification_type": "U",
        "meta_norad_cat_id": 64899,
        "meta_element_set_no": 999,
        "meta_rev_at_epoch": 2230,
        "meta_bstar": 0.00011833777,
        "meta_mean_motion_dot": 6.96e-06,
        "meta_mean_motion_ddot": 0,
        "tle_line1": "1 64899U 25156A   25358.74980501  .00000696  00000+0  11834-3 0  9992",
        "tle_line2": "2 64899  98.0010  73.9020 0017633 108.7626 251.5496 14.72075752 22306"
      },
      "geometry": {
        "type": "Point",
        "coordinates": [
          75.56765592487058,
          -7.996981550041537
        ]
      }
    },
    {
      "type": "Feature",
      "properties": {
        "norad_id": 64900,
        "name": "CO3D 3",
        "group": "resource",
        "lat": 44.55618279949956,
        "lon": 68.092721011677,
        "alt_km": 500.6518765095552,
        "timestamp": "2025-12-25T07:00:33.700682+00:00",
        "meta_object_name": "CO3D 3",
        "meta_object_id": "2025-156B",
        "meta_epoch": "2025-12-24T22:54:47.501280",
        "meta_mean_motion": 15.20194383,
        "meta_eccentricity": 0.00013696,
        "meta_inclination": 97.4336,
        "meta_ra_of_asc_node": 75.1465,
        "meta_arg_of_pericenter": 70.9391,
        "meta_mean_anomaly": 289.1993,
        "meta_ephemeris_type": 0,
        "meta_classification_type": "U",
        "meta_norad_cat_id": 64900,
        "meta_element_set_no": 999,
        "meta_rev_at_epoch": 2306,
        "meta_bstar": 0.00030942596,
        "meta_mean_motion_dot": 6.635e-05,
        "meta_mean_motion_ddot": 0,
        "tle_line1": "1 64900U 25156B   25358.95471645  .00006635  00000+0  30943-3 0  9993",
        "tle_line2": "2 64900  97.4336  75.1465 0001369  70.9391 289.1993 15.20194383 23067"
      },
      "geometry": {
        "type": "Point",
        "coordinates": [
          68.092721011677,
          44.55618279949956
        ]
      }
    },
    {
      "type": "Feature",
      "properties": {
        "norad_id": 64901,
        "name": "CO3D 4",
        "group": "resource",
        "lat": 43.78492336551704,
        "lon": 68.29032248164067,
        "alt_km": 501.9332982078113,
        "timestamp": "2025-12-25T07:00:33.700693+00:00",
        "meta_object_name": "CO3D 4",
        "meta_object_id": "2025-156C",
        "meta_epoch": "2025-12-24T22:55:00.106176",
        "meta_mean_motion": 15.20221822,
        "meta_eccentricity": 0.00014787,
        "meta_inclination": 97.4335,
        "meta_ra_of_asc_node": 75.1468,
        "meta_arg_of_pericenter": 157.9267,
        "meta_mean_anomaly": 202.2032,
        "meta_ephemeris_type": 0,
        "meta_classification_type": "U",
        "meta_norad_cat_id": 64901,
        "meta_element_set_no": 999,
        "meta_rev_at_epoch": 2306,
        "meta_bstar": 0.00022985261,
        "meta_mean_motion_dot": 4.914e-05,
        "meta_mean_motion_ddot": 0,
        "tle_line1": "1 64901U 25156C   25358.95486234  .00004914  00000+0  22985-3 0  9999",
        "tle_line2": "2 64901  97.4335  75.1468 0001478 157.9267 202.2032 15.20221822 23068"
      },
      "geometry": {
        "type": "Point",
        "coordinates": [
          68.29032248164067,
          43.78492336551704
        ]
      }
    },
    {
      "type": "Feature",
      "properties": {
        "norad_id": 64902,
        "name": "CO3D 2",
        "group": "resource",
        "lat": -46.24316824877522,
        "lon": -112.45985748611669,
        "alt_km": 512.5588131124096,
        "timestamp": "2025-12-25T07:00:33.700703+00:00",
        "meta_object_name": "CO3D 2",
        "meta_object_id": "2025-156D",
        "meta_epoch": "2025-12-24T20:32:12.517152",
        "meta_mean_motion": 15.20196009,
        "meta_eccentricity": 7.517e-05,
        "meta_inclination": 97.4339,
        "meta_ra_of_asc_node": 74.9475,
        "meta_arg_of_pericenter": 64.6322,
        "meta_mean_anomaly": 295.499,
        "meta_ephemeris_type": 0,
        "meta_classification_type": "U",
        "meta_norad_cat_id": 64902,
        "meta_element_set_no": 999,
        "meta_rev_at_epoch": 2304,
        "meta_bstar": 0.00027270195,
        "meta_mean_motion_dot": 5.839e-05,
        "meta_mean_motion_ddot": 0,
        "tle_line1": "1 64902U 25156D   25358.85570043  .00005839  00000+0  27270-3 0  9990",
        "tle_line2": "2 64902  97.4339  74.9475 0000751  64.6322 295.4990 15.20196009 23040"
      },
      "geometry": {
        "type": "Point",
        "coordinates": [
          -112.45985748611669,
          -46.24316824877522
        ]
      }
    }
  ]
}